CZ-2D R/B               
1 28738U 05024B   26074.92964533  .00042094  00000+0  50574-3 0  9991
2 28738  97.3592  90.3072 0004765  30.5859 329.5675 15.60753003140752
ALOS (DAICHI)           
1 28931U 06002A   26075.10633480  .00001255  00000+0  21842-3 0  9998
2 28931  98.1227  31.0299 0000736  69.8452 290.2833 14.69831140 74429
H-2A R/B                
1 28932U 06002B   26075.14148051  .00010169  00000+0  50698-3 0  9993
2 28932  98.2415 222.7213 0051984 218.8437 140.9053 15.16572526 95415
RESURS-DK 1             
1 29228U 06021A   26075.14775090  .00003366  00000+0  19738-3 0  9993
2 29228  69.9327 220.3162 0001202 152.5778 207.5452 15.12794613 88502
CZ-4B R/B               
1 29507U 06046C   26075.07369668  .00005115  00000+0  25929-3 0  9995
2 29507  97.5587 119.9656 0031823 244.1630 115.6320 15.16974621 61018
CZ-2C R/B               
1 31114U 07010B   26075.20731047  .00000128  00000+0  78116-4 0  9999
2 31114  98.3984 188.1595 0057833 275.3053  84.1528 14.20248709980643
COSMO-SKYMED 1          
1 31598U 07023A   26075.28371435  .00004175  00000+0  37179-3 0  9997
2 31598  97.8884 266.3692 0001590  92.2756 267.8647 14.96595017 15892
COSMOS 2428             
1 31792U 07029A   26075.26024704 -.00000013  00000+0  18571-4 0  9995
2 31792  70.9439 189.5527 0009376 270.4203  89.5844 14.12947223965021
SL-16 R/B               
1 31793U 07029B   26074.66384344  .00000274  00000+0  16675-3 0  9998
2 31793  70.9757 159.8277 0002271 276.2076 246.2511 14.14835963966210
KORONAS-FOTON           
1 33504U 09003A   26075.24772589  .00013504  00000+0  29988-3 0  9992
2 33504  82.4272 269.0586 0011672 128.1379 232.0922 15.43485725946751
CZ-2C R/B               
1 37731U 11030B   26075.15491531  .00001500  00000+0  19505-3 0  9993
2 37731  97.8554  32.2890 0051876 330.8895  39.1475 14.81247325791056
H-2A R/B                
1 38341U 12025E   26075.15303308  .00002346  00000+0  21579-3 0  9993
2 38341  98.4733  42.7169 0043285 292.5527  67.1113 14.95217587749185
SHIJIAN-16 (SJ-16)      
1 39358U 13057A   26075.33285207  .00001332  00000+0  13271-3 0  9999
2 39358  74.9734 172.5132 0015409  95.5259 264.7687 14.92377507672492
SL-4 R/B                
1 39679U 14021B   26074.92637133  .00014573  00000+0  32013-3 0  9996
2 39679  51.6065 306.8490 0096959 125.7536 235.2512 15.39397720657235
ALOS-2                  
1 39766U 14029A   26075.27899605  .00002284  00000+0  31220-3 0  9999
2 39766  97.9191 173.7805 0001390  94.1611 265.9759 14.79532670637840
YAOGAN-29               
1 41038U 15069A   26075.27178605  .00000204  00000+0  31739-4 0  9995
2 41038  98.0141 103.7191 0001513  24.4226 335.7058 14.83002617556855
ASTRO-H (HITOMI)        
1 41337U 16012A   26074.97986984  .00002936  00000+0  17031-3 0  9991
2 41337  31.0002 315.9559 0009670  33.9693 326.1563 15.10050096553183
HXMT (HUIYAN)           
1 42758U 17034A   26075.22803816  .00006010  00000+0  30129-3 0  9995
2 42758  43.0161 340.3216 0033238 275.6887  84.0172 15.17565249483534
SAOCOM 1A               
1 43641U 18076A   26075.30902981  .00000082  00000+0  16916-4 0  9998
2 43641  97.8898 263.3879 0001462  85.0881 275.0499 14.82147422402344
H-2A R/B                
1 43682U 18084L   26075.15916587  .00019289  00000+0  45495-3 0  9994
2 43682  98.8727 293.9310 0024869   3.2201 356.9196 15.41645217406779
SAOCOM 1B               
1 46265U 20059A   26073.04490030  .00000161  00000+0  26755-4 0  9993
2 46265  97.8899 260.2532 0001383  84.3427 275.7944 14.82151938299390
CSS (TIANHE)            
1 48274U 21035A   26074.66617283  .00022966  00000+0  26860-3 0  9993
2 48274  41.4669 171.7890 0006367 308.3503  51.6764 15.61005371278548
COSMOS 2550             
1 48865U 21056A   26075.55970850 -.00000205  00000+0 -40852-6 0  9997
2 48865  67.1424  20.0999 0008230 269.2156  90.8055 15.33868047264510
CZ-2C R/B               
1 52794U 22058K   26075.13336576  .00029592  00000+0  42584-3 0  9990
2 52794  50.1879 285.1318 0041972 228.2746 131.4632 15.54721925211130
CZ-2C R/B               
1 54039U 22132E   26074.96954455  .00041544  00000+0  46298-3 0  9996
2 54039  97.2954  78.4798 0020100  71.5007 288.8434 15.62466138191353
GSLV R/B                
1 54149U 22138AN  26075.20570378  .00002888  00000+0  24832-3 0  9998
2 54149  87.3882 164.1817 0023711 124.8766 235.4699 14.96825525184904
XRISM                   
1 57800U 23137A   26075.17812424  .00005494  00000+0  31013-3 0  9997
2 57800  31.0005 241.6922 0007925 104.1647 255.9872 15.11577819138772
ACS3                    
1 59588U 24077B   26075.12162068  .00011568  00000+0  92522-2 0  9993
2 59588  97.2032  14.7875 0065432  61.1551 299.6160 13.89884707 95092
SZ-21 MODULE            
1 66515U 25246C   26074.61177792  .00034609  00000+0  29227-3 0  9997
2 66515  41.4740 166.8918 0000819 310.4718  49.6052 15.69044572 19005
